NORAD_CAT_ID,OBJECT_NAME,OBJECT_TYPE,EPOCH,MEAN_MOTION,ECCENTRICITY,INCLINATION,RA_OF_ASC_NODE,ARG_OF_PERICENTER,MEAN_ANOMALY,BSTAR,MEAN_MOTION_DOT,MEAN_MOTION_DDOT,TLE_LINE0,TLE_LINE1,TLE_LINE2,SEMIMAJOR_AXIS,PERIOD,APOGEE,PERIGEE,DECAYED
55673.0,STARLINK-5463,PAYLOAD,2024-03-03 13:45:25,14.98324311,0.0003243,69.9995,220.3739,269.1551,90.9237,-6.7916e-05,-9.03e-06,0.0,0 STARLINK-5463,1 55673U 23021AX  24063.57320846 -.00000903  00000-0 -67916-4 0  9991,2 55673  69.9995 220.3739 0003243 269.1551  90.9237 14.98324311 59024,6950.21,96.107,574.329,569.822,0.0
55673.0,STARLINK-5463,PAYLOAD,2024-03-03 20:09:57,14.98326109,0.0003126,69.9996,219.7004,266.0201,94.0601,-6.4083e-05,-8.57e-06,0.0,0 STARLINK-5463,1 55673U 23021AX  24063.84024789 -.00000857  00000-0 -64083-4 0  9998,2 55673  69.9996 219.7004 0003126 266.0201  94.0601 14.98326109 59061,6950.205,96.107,574.243,569.897,0.0
55673.0,STARLINK-5463,PAYLOAD,2024-03-04 04:10:37,14.98334136,0.0003163,69.9998,218.859,267.6431,92.4365,2.3062e-05,1.82e-06,0.0,0 STARLINK-5463,1 55673U 23021AX  24064.17404050  .00000182  00000-0  23062-4 0  9999,2 55673  69.9998 218.8590 0003163 267.6431  92.4365 14.98334136 58816,6950.18,96.107,574.243,569.847,0.0
55673.0,STARLINK-5463,PAYLOAD,2024-03-04 13:47:24,14.98338216,0.0003351,70.0001,217.8498,268.5444,91.5331,8.6752e-05,9.42e-06,0.0,0 STARLINK-5463,1 55673U 23021AX  24064.57459340  .00000942  00000-0  86752-4 0  9994,2 55673  70.0001 217.8498 0003351 268.5444  91.5331 14.98338216 59179,6950.167,96.106,574.361,569.703,0.0
55673.0,STARLINK-5463,PAYLOAD,2024-03-04 20:11:56,14.98346021,0.0003386,69.9996,217.1763,268.5661,91.511,0.00015473,1.754e-05,0.0,0 STARLINK-5463,1 55673U 23021AX  24064.84162453  .00001754  00000-0  15473-3 0  9993,2 55673  69.9996 217.1763 0003386 268.5661  91.5110 14.98346021 58915,6950.143,96.106,574.362,569.655,0.0
55673.0,STARLINK-5463,PAYLOAD,2024-03-05 13:49:26,14.9831875,0.0003457,69.9995,215.325,274.0803,85.9961,8.0596e-07,-8.3e-07,0.0,0 STARLINK-5463,1 55673U 23021AX  24065.57600685 -.00000083  00000-0  80596-6 0  9994,2 55673  69.9995 215.3250 0003457 274.0803  85.9961 14.98318750 59329,6950.228,96.108,574.495,569.69,0.0
55673.0,STARLINK-5463,PAYLOAD,2024-03-05 20:13:59,14.9832154,0.0003327,69.9997,214.6517,270.3405,89.7373,-2.0689e-05,-3.4e-06,0.0,0 STARLINK-5463,1 55673U 23021AX  24065.84304682 -.00000340  00000-0 -20689-4 0  9994,2 55673  69.9997 214.6517 0003327 270.3405  89.7373 14.98321540 59063,6950.219,96.108,574.396,569.772,0.0
55673.0,STARLINK-5463,PAYLOAD,2024-03-06 12:15:19,14.98335376,0.0003268,70.0,212.9685,271.1447,88.9338,-8.9694e-05,-1.163e-05,0.0,0 STARLINK-5463,1 55673U 23021AX  24066.51064049 -.00001163  00000-0 -89694-4 0  9994,2 55673  70.0000 212.9685 0003268 271.1447  88.9338 14.98335376 59162,6950.176,96.107,574.313,569.77,0.0
55673.0,STARLINK-5463,PAYLOAD,2024-03-06 13:51:27,14.98335295,0.0003275,70.0,212.8002,270.8369,89.2415,-8.7419e-05,-1.136e-05,0.0,0 STARLINK-5463,1 55673U 23021AX  24066.57740025 -.00001136  00000-0 -87419-4 0  9998,2 55673  70.0000 212.8002 0003275 270.8369  89.2415 14.98335295 59475,6950.177,96.107,574.318,569.765,0.0
55673.0,STARLINK-5463,PAYLOAD,2024-03-06 18:39:51,14.98340649,0.0003291,69.9999,212.2952,271.1665,88.9117,-4.8395e-05,-6.71e-06,0.0,0 STARLINK-5463,1 55673U 23021AX  24066.77767496 -.00000671  00000-0 -48395-4 0  9994,2 55673  69.9999 212.2952 0003291 271.1665  88.9117 14.98340649 59203,6950.16,96.106,574.312,569.738,0.0
55673.0,STARLINK-5463,PAYLOAD,2024-03-07 13:53:28,14.98320856,0.0003068,70.0001,210.2763,267.5827,92.4981,6.773e-05,7.15e-06,0.0,0 STARLINK-5463,1 55673U 23021AX  24067.57880482  .00000715  00000-0  67730-4 0  9995,2 55673  70.0001 210.2763 0003068 267.5827  92.4981 14.98320856 59622,6950.221,96.108,574.218,569.954,0.0
55673.0,STARLINK-5463,PAYLOAD,2024-03-08 12:19:21,14.9833296,0.0003087,70.0001,207.9193,266.1966,93.884,2.6992e-05,2.29e-06,0.0,0 STARLINK-5463,1 55673U 23021AX  24068.51343966  .00000229  00000-0  26992-4 0  9996,2 55673  70.0001 207.9193 0003087 266.1966  93.8840 14.98332960 59462,6950.184,96.107,574.194,569.903,0.0
55673.0,STARLINK-5463,PAYLOAD,2024-03-08 18:43:53,14.9833592,0.0002939,70.0001,207.2462,264.5185,95.5638,8.4022e-05,9.1e-06,0.0,0 STARLINK-5463,1 55673U 23021AX  24068.78047567  .00000910  00000-0  84022-4 0  9998,2 55673  70.0001 207.2462 0002939 264.5185  95.5638 14.98335920 59805,6950.175,96.107,574.082,569.997,0.0
55673.0,STARLINK-5463,PAYLOAD,2024-03-09 12:21:22,14.98326737,0.0003063,70.0001,205.3947,266.7035,93.3773,8.7322e-06,1.1e-07,0.0,0 STARLINK-5463,1 55673U 23021AX  24069.51484232  .00000011  00000-0  87322-5 0  9993,2 55673  70.0001 205.3947 0003063 266.7035  93.3773 14.98326737 59913,6950.203,96.107,574.197,569.939,0.0
55673.0,STARLINK-5463,PAYLOAD,2024-03-09 18:45:54,14.98321069,0.0002987,70.0001,204.7213,265.9901,94.0917,0.00016007,1.817e-05,0.0,0 STARLINK-5463,1 55673U 23021AX  24069.78188264  .00001817  00000-0  16007-3 0  9993,2 55673  70.0001 204.7213 0002987 265.9901  94.0917 14.98321069 59651,6950.221,96.108,574.162,570.009,0.0
55673.0,STARLINK-5463,PAYLOAD,2024-03-10 02:46:36,14.98263026,0.0002875,69.9986,203.8771,268.7355,91.3475,0.0010272,0.00012163,0.0,0 STARLINK-5463,1 55673U 23021AX  24070.11570288  .00012163  00000-0  10272-2 0  9996,2 55673  69.9986 203.8771 0002875 268.7355  91.3475 14.98263026 59702,6950.4,96.111,574.263,570.267,0.0
55673.0,STARLINK-5463,PAYLOAD,2024-03-10 12:23:23,14.98329055,0.0002948,69.9986,202.867,264.7102,95.372,-6.0298e-05,-8.12e-06,0.0,0 STARLINK-5463,1 55673U 23021AX  24070.51624369 -.00000812  00000-0 -60298-4 0  9995,2 55673  69.9986 202.8670 0002948 264.7102  95.3720 14.98329055 59764,6950.196,96.107,574.11,570.012,0.0
55673.0,STARLINK-5463,PAYLOAD,2024-03-10 18:47:55,14.98328552,0.0003142,69.9993,202.1956,269.6194,90.4605,-7.3916e-05,-9.75e-06,0.0,0 STARLINK-5463,1 55673U 23021AX  24070.78328493 -.00000975  00000-0 -73916-4 0  9994,2 55673  69.9993 202.1956 0003142 269.6194  90.4605 14.98328552 60103,6950.197,96.107,574.246,569.879,0.0
55673.0,STARLINK-5463,PAYLOAD,2024-03-11 12:25:23,14.98334167,0.0003147,69.9995,200.3444,270.3852,89.6946,6.7782e-05,7.16e-06,0.0,0 STARLINK-5463,1 55673U 23021AX  24071.51763718  .00000716  00000-0  67782-4 0  9994,2 55673  69.9995 200.3444 0003147 270.3852  89.6946 14.98334167 59916,6950.18,96.107,574.232,569.858,0.0
55673.0,STARLINK-5463,PAYLOAD,2024-03-12 12:27:25,14.9830869,0.0003244,70.0003,197.8212,269.051,91.0277,0.00034966,4.079e-05,0.0,0 STARLINK-5463,1 55673U 23021AX  24072.51904586  .00004079  00000-0  34966-3 0  9998,2 55673  70.0003 197.8212 0003244 269.0510  91.0277 14.98308690 60060,6950.259,96.108,574.378,569.869,0.0
55673.0,STARLINK-5463,PAYLOAD,2024-03-12 18:51:57,14.98331097,0.000317,70.0002,197.148,267.9923,92.0873,5.5048e-05,5.64e-06,0.0,0 STARLINK-5463,1 55673U 23021AX  24072.78607849  .00000564  00000-0  55048-4 0  9999,2 55673  70.0002 197.1480 0003170 267.9923  92.0873 14.98331097 60400,6950.189,96.107,574.258,569.851,0.0
55673.0,STARLINK-5463,PAYLOAD,2024-03-13 14:05:33,14.98335074,0.0003136,69.9996,195.1258,265.4956,94.5845,-3.9534e-05,-5.65e-06,0.0,0 STARLINK-5463,1 55673U 23021AX  24073.58719723 -.00000565  00000-0 -39534-4 0  9998,2 55673  69.9996 195.1258 0003136 265.4956  94.5845 14.98335074 60529,6950.177,96.107,574.222,569.863,0.0
55673.0,STARLINK-5463,PAYLOAD,2024-03-14 12:31:26,14.9833104,0.0003149,69.9998,192.7692,263.5609,96.5192,2.0708e-05,1.54e-06,0.0,0 STARLINK-5463,1 55673U 23021AX  24074.52183619  .00000154  00000-0  20708-4 0  9997,2 55673  69.9998 192.7692 0003149 263.5609  96.5192 14.98331040 60362,6950.19,96.107,574.243,569.866,0.0
55673.0,STARLINK-5463,PAYLOAD,2024-03-15 10:57:19,14.9832908,0.0003077,70.0,190.4129,264.0224,96.0585,-1.8009e-05,-3.08e-06,0.0,0 STARLINK-5463,1 55673U 23021AX  24075.45647873 -.00000308  00000-0 -18009-4 0  9991,2 55673  70.0000 190.4129 0003077 264.0224  96.0585 14.98329080 60809,6950.196,96.107,574.199,569.922,0.0
55673.0,STARLINK-5463,PAYLOAD,2024-03-16 10:59:20,14.98328135,0.0003032,70.0001,187.889,263.0174,97.064,1.8237e-05,1.25e-06,0.0,0 STARLINK-5463,1 55673U 23021AX  24076.45787799  .00000125  00000-0  18237-4 0  9992,2 55673  70.0001 187.8890 0003032 263.0174  97.0640 14.98328135 60655,6950.199,96.107,574.171,569.956,0.0
55673.0,STARLINK-5463,PAYLOAD,2024-03-16 14:11:36,14.98327393,0.0003235,70.0002,187.5529,266.8448,93.2341,1.2012e-05,5e-07,0.0,0 STARLINK-5463,1 55673U 23021AX  24076.59139902  .00000050  00000-0  12012-4 0  9996,2 55673  70.0002 187.5529 0003235 266.8448  93.2341 14.98327393 60978,6950.201,96.107,574.314,569.818,0.0
55673.0,STARLINK-5463,PAYLOAD,2024-03-16 17:23:52,14.98329483,0.0003179,70.0006,187.217,265.6784,94.4012,3.3452e-05,3.06e-06,0.0,0 STARLINK-5463,1 55673U 23021AX  24076.72491716  .00000306  00000-0  33452-4 0  9990,2 55673  70.0006 187.2170 0003179 265.6784  94.4012 14.98329483 60990,6950.194,96.107,574.269,569.85,0.0
55673.0,STARLINK-5463,PAYLOAD,2024-03-17 11:01:21,14.98329251,0.0003102,70.0008,185.3657,264.7023,95.3782,8.3711e-06,7e-08,0.0,0 STARLINK-5463,1 55673U 23021AX  24077.45927837  .00000007  00000-0  83711-5 0  9991,2 55673  70.0008 185.3657 0003102 264.7023  95.3782 14.98329251 60800,6950.195,96.107,574.216,569.904,0.0
55673.0,STARLINK-5463,PAYLOAD,2024-03-17 14:13:37,14.98330235,0.0003051,70.0007,185.0289,263.6546,96.4266,1.781e-05,1.2e-06,0.0,0 STARLINK-5463,1 55673U 23021AX  24077.59279738  .00000120  00000-0  17810-4 0  9998,2 55673  70.0007 185.0289 0003051 263.6546  96.4266 14.98330235 61127,6950.192,96.107,574.178,569.937,0.0
55673.0,STARLINK-5463,PAYLOAD,2024-03-17 17:25:53,14.98332384,0.0003036,70.0009,184.6925,263.9829,96.0984,4.1196e-05,3.99e-06,0.0,0 STARLINK-5463,1 55673U 23021AX  24077.72631524  .00000399  00000-0  41196-4 0  9990,2 55673  70.0009 184.6925 0003036 263.9829  96.0984 14.98332384 61143,6950.186,96.107,574.161,569.94,0.0
